ORBCOMM FM20            
1 25416U 98046D   26064.98248674  .00001212  00000+0  44474-3 0  9992
2 25416  44.9954  20.8501 0001453 290.4917  69.5775 14.37886323441931
ORBCOMM FM16            
1 25417U 98046E   26065.27282630  .00001791  00000+0  61043-3 0  9999
2 25417  44.9950   7.3773 0003063 200.1409 159.9320 14.39823795442018
ORBCOMM FM15            
1 25418U 98046F   26064.83007327  .00000577  00000+0  22889-3 0  9995
2 25418  44.9983  15.4349 0002728 201.4877 158.5857 14.39442030441933
ORBCOMM FM14            
1 25419U 98046G   26065.19180245  .00001777  00000+0  60519-3 0  9992
2 25419  44.9969  11.1247 0001611 211.5691 148.5062 14.39883905441964
ORBCOMM FM13            
1 25420U 98046H   26065.27171979  .00001546  00000+0  54823-3 0  9992
2 25420  44.9986  21.4531 0003283 169.5432 190.5486 14.38438136440964
ORBCOMM FM21            
1 25475U 98053A   26065.27718662  .00001292  00000+0  46986-3 0  9995
2 25475  45.0074 107.7158 0001147 228.7790 131.2960 14.38007464434967
ORBCOMM FM22            
1 25476U 98053B   26065.10821652  .00001279  00000+0  45419-3 0  9997
2 25476  45.0064 101.0755 0001135 142.3111 217.7818 14.39229580434993
ORBCOMM FM23            
1 25477U 98053C   26065.09884170  .00001163  00000+0  42545-3 0  9999
2 25477  45.0073 110.2403 0000694 168.6648 191.4216 14.38266165435092
ORBCOMM FM24            
1 25478U 98053D   26065.13535926  .00001224  00000+0  43940-3 0  9995
2 25478  45.0071 106.3241 0000942 193.8149 166.2675 14.38913113435168
ORBCOMM FM25            
1 25479U 98053E   26065.11228693  .00001179  00000+0  42532-3 0  9999
2 25479  45.0062 104.7468 0002935 148.5501 211.5524 14.38875063435455
ORBCOMM FM26            
1 25480U 98053F   26065.09742797  .00001011  00000+0  37911-3 0  9994
2 25480  45.0062 103.2794 0005172 156.8997 203.2085 14.37811251435335
ORBCOMM FM27            
1 25481U 98053G   26065.16310097  .00001273  00000+0  45529-3 0  9991
2 25481  45.0047 104.6034 0001821 249.0040 111.0614 14.38919478435393
ORBCOMM FM28            
1 25482U 98053H   26065.10462831  .00001184  00000+0  42572-3 0  9996
2 25482  45.0062  42.0860 0003727 203.4868 156.5811 14.39015851436074
ORBCOMM FM30            
1 25980U 99065A   26064.98817343  .00000940  00000+0  35478-3 0  9996
2 25980  45.0315 289.8952 0005830 244.1695 115.8552 14.37971678372129
ORBCOMM FM31            
1 25981U 99065B   26064.76569101  .00001089  00000+0  40422-3 0  9999
2 25981  45.0225 284.3911 0003505 273.1224  86.9223 14.37895042371641
ORBCOMM FM32            
1 25982U 99065C   26064.98433853  .00000991  00000+0  37914-3 0  9991
2 25982  45.0161 301.6775 0005776 269.0358  90.9828 14.36957020372243
