[{"OBJECT_NAME":"ORBCOMM FM20","OBJECT_ID":"1998-046D","EPOCH":"2026-03-05T23:34:46.854336","MEAN_MOTION":14.37886323,"ECCENTRICITY":0.00014536,"INCLINATION":44.9954,"RA_OF_ASC_NODE":20.8501,"ARG_OF_PERICENTER":290.4917,"MEAN_ANOMALY":69.5775,"EPHEMERIS_TYPE":0,"CLASSIFICATION_TYPE":"U","NORAD_CAT_ID":25416,"ELEMENT_SET_NO":999,"REV_AT_EPOCH":44193,"BSTAR":0.00044474203,"MEAN_MOTION_DOT":1.212e-5,"MEAN_MOTION_DDOT":0},{"OBJECT_NAME":"ORBCOMM FM16","OBJECT_ID":"1998-046E","EPOCH":"2026-03-06T06:32:52.192320","MEAN_MOTION":14.39823795,"ECCENTRICITY":0.00030635,"INCLINATION":44.995,"RA_OF_ASC_NODE":7.3773,"ARG_OF_PERICENTER":200.1409,"MEAN_ANOMALY":159.932,"EPHEMERIS_TYPE":0,"CLASSIFICATION_TYPE":"U","NORAD_CAT_ID":25417,"ELEMENT_SET_NO":999,"REV_AT_EPOCH":44201,"BSTAR":0.00061042534,"MEAN_MOTION_DOT":1.791e-5,"MEAN_MOTION_DDOT":0},{"OBJECT_NAME":"ORBCOMM FM15","OBJECT_ID":"1998-046F","EPOCH":"2026-03-05T19:55:18.330528","MEAN_MOTION":14.3944203,"ECCENTRICITY":0.00027281,"INCLINATION":44.9983,"RA_OF_ASC_NODE":15.4349,"ARG_OF_PERICENTER":201.4877,"MEAN_ANOMALY":158.5857,"EPHEMERIS_TYPE":0,"CLASSIFICATION_TYPE":"U","NORAD_CAT_ID":25418,"ELEMENT_SET_NO":999,"REV_AT_EPOCH":44193,"BSTAR":0.00022889098,"MEAN_MOTION_DOT":5.77e-6,"MEAN_MOTION_DDOT":0},{"OBJECT_NAME":"ORBCOMM FM14","OBJECT_ID":"1998-046G","EPOCH":"2026-03-06T04:36:11.731680","MEAN_MOTION":14.39883905,"ECCENTRICITY":0.00016116,"INCLINATION":44.9969,"RA_OF_ASC_NODE":11.1247,"ARG_OF_PERICENTER":211.5691,"MEAN_ANOMALY":148.5062,"EPHEMERIS_TYPE":0,"CLASSIFICATION_TYPE":"U","NORAD_CAT_ID":25419,"ELEMENT_SET_NO":999,"REV_AT_EPOCH":44196,"BSTAR":0.00060518738,"MEAN_MOTION_DOT":1.777e-5,"MEAN_MOTION_DDOT":0},{"OBJECT_NAME":"ORBCOMM FM13","OBJECT_ID":"1998-046H","EPOCH":"2026-03-06T06:31:16.589856","MEAN_MOTION":14.38438136,"ECCENTRICITY":0.00032831,"INCLINATION":44.9986,"RA_OF_ASC_NODE":21.4531,"ARG_OF_PERICENTER":169.5432,"MEAN_ANOMALY":190.5486,"EPHEMERIS_TYPE":0,"CLASSIFICATION_TYPE":"U","NORAD_CAT_ID":25420,"ELEMENT_SET_NO":999,"REV_AT_EPOCH":44096,"BSTAR":0.0005482313,"MEAN_MOTION_DOT":1.546e-5,"MEAN_MOTION_DDOT":0},{"OBJECT_NAME":"ORBCOMM FM21","OBJECT_ID":"1998-053A","EPOCH":"2026-03-06T06:39:08.923968","MEAN_MOTION":14.38007464,"ECCENTRICITY":0.00011479,"INCLINATION":45.0074,"RA_OF_ASC_NODE":107.7158,"ARG_OF_PERICENTER":228.779,"MEAN_ANOMALY":131.296,"EPHEMERIS_TYPE":0,"CLASSIFICATION_TYPE":"U","NORAD_CAT_ID":25475,"ELEMENT_SET_NO":999,"REV_AT_EPOCH":43496,"BSTAR":0.00046986239,"MEAN_MOTION_DOT":1.292e-5,"MEAN_MOTION_DDOT":0},{"OBJECT_NAME":"ORBCOMM FM22","OBJECT_ID":"1998-053B","EPOCH":"2026-03-06T02:35:49.907328","MEAN_MOTION":14.3922958,"ECCENTRICITY":0.00011359,"INCLINATION":45.0064,"RA_OF_ASC_NODE":101.0755,"ARG_OF_PERICENTER":142.3111,"MEAN_ANOMALY":217.7818,"EPHEMERIS_TYPE":0,"CLASSIFICATION_TYPE":"U","NORAD_CAT_ID":25476,"ELEMENT_SET_NO":999,"REV_AT_EPOCH":43499,"BSTAR":0.00045418555,"MEAN_MOTION_DOT":1.279e-5,"MEAN_MOTION_DDOT":0},{"OBJECT_NAME":"ORBCOMM FM23","OBJECT_ID":"1998-053C","EPOCH":"2026-03-06T02:22:19.922880","MEAN_MOTION":14.38266165,"ECCENTRICITY":6.944e-5,"INCLINATION":45.0073,"RA_OF_ASC_NODE":110.2403,"ARG_OF_PERICENTER":168.6648,"MEAN_ANOMALY":191.4216,"EPHEMERIS_TYPE":0,"CLASSIFICATION_TYPE":"U","NORAD_CAT_ID":25477,"ELEMENT_SET_NO":999,"REV_AT_EPOCH":43509,"BSTAR":0.00042544879,"MEAN_MOTION_DOT":1.163e-5,"MEAN_MOTION_DDOT":0},{"OBJECT_NAME":"ORBCOMM FM24","OBJECT_ID":"1998-053D","EPOCH":"2026-03-06T03:14:55.040064","MEAN_MOTION":14.38913113,"ECCENTRICITY":9.42e-5,"INCLINATION":45.0071,"RA_OF_ASC_NODE":106.3241,"ARG_OF_PERICENTER":193.8149,"MEAN_ANOMALY":166.2675,"EPHEMERIS_TYPE":0,"CLASSIFICATION_TYPE":"U","NORAD_CAT_ID":25478,"ELEMENT_SET_NO":999,"REV_AT_EPOCH":43516,"BSTAR":0.00043939915,"MEAN_MOTION_DOT":1.224e-5,"MEAN_MOTION_DDOT":0},{"OBJECT_NAME":"ORBCOMM FM25","OBJECT_ID":"1998-053E","EPOCH":"2026-03-06T02:41:41.590752","MEAN_MOTION":14.38875063,"ECCENTRICITY":0.00029358,"INCLINATION":45.0062,"RA_OF_ASC_NODE":104.7468,"ARG_OF_PERICENTER":148.5501,"MEAN_ANOMALY":211.5524,"EPHEMERIS_TYPE":0,"CLASSIFICATION_TYPE":"U","NORAD_CAT_ID":25479,"ELEMENT_SET_NO":999,"REV_AT_EPOCH":43545,"BSTAR":0.00042532414,"MEAN_MOTION_DOT":1.179e-5,"MEAN_MOTION_DDOT":0},{"OBJECT_NAME":"ORBCOMM FM26","OBJECT_ID":"1998-053F","EPOCH":"2026-03-06T02:20:17.776608","MEAN_MOTION":14.37811251,"ECCENTRICITY":0.00051729,"INCLINATION":45.0062,"RA_OF_ASC_NODE":103.2794,"ARG_OF_PERICENTER":156.8997,"MEAN_ANOMALY":203.2085,"EPHEMERIS_TYPE":0,"CLASSIFICATION_TYPE":"U","NORAD_CAT_ID":25480,"ELEMENT_SET_NO":999,"REV_AT_EPOCH":43533,"BSTAR":0.00037911021,"MEAN_MOTION_DOT":1.011e-5,"MEAN_MOTION_DDOT":0},{"OBJECT_NAME":"ORBCOMM FM27","OBJECT_ID":"1998-053G","EPOCH":"2026-03-06T03:54:51.923808","MEAN_MOTION":14.38919478,"ECCENTRICITY":0.00018219,"INCLINATION":45.0047,"RA_OF_ASC_NODE":104.6034,"ARG_OF_PERICENTER":249.004,"MEAN_ANOMALY":111.0614,"EPHEMERIS_TYPE":0,"CLASSIFICATION_TYPE":"U","NORAD_CAT_ID":25481,"ELEMENT_SET_NO":999,"REV_AT_EPOCH":43539,"BSTAR":0.00045529445,"MEAN_MOTION_DOT":1.273e-5,"MEAN_MOTION_DDOT":0},{"OBJECT_NAME":"ORBCOMM FM28","OBJECT_ID":"1998-053H","EPOCH":"2026-03-06T02:30:39.885984","MEAN_MOTION":14.39015851,"ECCENTRICITY":0.00037272,"INCLINATION":45.0062,"RA_OF_ASC_NODE":42.086,"ARG_OF_PERICENTER":203.4868,"MEAN_ANOMALY":156.5811,"EPHEMERIS_TYPE":0,"CLASSIFICATION_TYPE":"U","NORAD_CAT_ID":25482,"ELEMENT_SET_NO":999,"REV_AT_EPOCH":43607,"BSTAR":0.00042572118,"MEAN_MOTION_DOT":1.184e-5,"MEAN_MOTION_DDOT":0},{"OBJECT_NAME":"ORBCOMM FM30","OBJECT_ID":"1999-065A","EPOCH":"2026-03-05T23:42:58.184352","MEAN_MOTION":14.37971678,"ECCENTRICITY":0.00058301,"INCLINATION":45.0315,"RA_OF_ASC_NODE":289.8952,"ARG_OF_PERICENTER":244.1695,"MEAN_ANOMALY":115.8552,"EPHEMERIS_TYPE":0,"CLASSIFICATION_TYPE":"U","NORAD_CAT_ID":25980,"ELEMENT_SET_NO":999,"REV_AT_EPOCH":37212,"BSTAR":0.00035478333,"MEAN_MOTION_DOT":9.4e-6,"MEAN_MOTION_DDOT":0},{"OBJECT_NAME":"ORBCOMM FM31","OBJECT_ID":"1999-065B","EPOCH":"2026-03-05T18:22:35.703264","MEAN_MOTION":14.37895042,"ECCENTRICITY":0.00035052,"INCLINATION":45.0225,"RA_OF_ASC_NODE":284.3911,"ARG_OF_PERICENTER":273.1224,"MEAN_ANOMALY":86.9223,"EPHEMERIS_TYPE":0,"CLASSIFICATION_TYPE":"U","NORAD_CAT_ID":25981,"ELEMENT_SET_NO":999,"REV_AT_EPOCH":37164,"BSTAR":0.00040422328,"MEAN_MOTION_DOT":1.089e-5,"MEAN_MOTION_DDOT":0},{"OBJECT_NAME":"ORBCOMM FM32","OBJECT_ID":"1999-065C","EPOCH":"2026-03-05T23:37:26.848992","MEAN_MOTION":14.3695702,"ECCENTRICITY":0.00057767,"INCLINATION":45.0161,"RA_OF_ASC_NODE":301.6775,"ARG_OF_PERICENTER":269.0358,"MEAN_ANOMALY":90.9828,"EPHEMERIS_TYPE":0,"CLASSIFICATION_TYPE":"U","NORAD_CAT_ID":25982,"ELEMENT_SET_NO":999,"REV_AT_EPOCH":37224,"BSTAR":0.00037913634,"MEAN_MOTION_DOT":9.91e-6,"MEAN_MOTION_DDOT":0}]
